[{"OBJECT_NAME":"GEOSCAN 2 (RS92S2)","OBJECT_ID":"2025-155Q","EPOCH":"2026-03-09T23:01:48.939744","MEAN_MOTION":15.28709337,"ECCENTRICITY":0.00085277,"INCLINATION":97.4463,"RA_OF_ASC_NODE":37.5259,"ARG_OF_PERICENTER":140.9505,"MEAN_ANOMALY":219.2352,"EPHEMERIS_TYPE":0,"CLASSIFICATION_TYPE":"U","NORAD_CAT_ID":64890,"ELEMENT_SET_NO":999,"REV_AT_EPOCH":6561,"BSTAR":0.00051551761,"MEAN_MOTION_DOT":0.00014341,"MEAN_MOTION_DDOT":0},{"OBJECT_NAME":"STARLINK-36034","OBJECT_ID":"2025-270X","EPOCH":"2026-03-09T23:10:18.322176","MEAN_MOTION":15.27584857,"ECCENTRICITY":0.00010445,"INCLINATION":43.0015,"RA_OF_ASC_NODE":54.9914,"ARG_OF_PERICENTER":215.0502,"MEAN_ANOMALY":145.0281,"EPHEMERIS_TYPE":0,"CLASSIFICATION_TYPE":"U","NORAD_CAT_ID":66609,"ELEMENT_SET_NO":999,"REV_AT_EPOCH":1758,"BSTAR":0.0010090645,"MEAN_MOTION_DOT":0.00027613,"MEAN_MOTION_DDOT":0}]
